NORAD_CAT_ID,OBJECT_NAME,OBJECT_TYPE,EPOCH,MEAN_MOTION,ECCENTRICITY,INCLINATION,RA_OF_ASC_NODE,ARG_OF_PERICENTER,MEAN_ANOMALY,BSTAR,MEAN_MOTION_DOT,MEAN_MOTION_DDOT,TLE_LINE0,TLE_LINE1,TLE_LINE2,SEMIMAJOR_AXIS,PERIOD,APOGEE,PERIGEE,DECAYED
54068.0,STARLINK-5222,PAYLOAD,2024-04-02 05:16:20,15.08838599,0.0001124,53.2172,275.3988,88.0735,272.0386,7.5567e-05,9.15e-06,0.0,0 STARLINK-5222,1 54068U 22136T   24093.21968667  .00000915  00000-0  75567-4 0  9999,2 54068  53.2172 275.3988 0001124  88.0735 272.0386 15.08838599 80198,6917.885,95.438,540.527,538.972,0.0
54068.0,STARLINK-5222,PAYLOAD,2024-04-02 19:34:48,15.08842705,0.0001145,53.2173,272.7225,83.0738,277.0385,0.00012045,1.63e-05,0.0,0 STARLINK-5222,1 54068U 22136T   24093.81584401  .00001630  00000-0  12045-3 0  9991,2 54068  53.2173 272.7225 0001145  83.0738 277.0385 15.08842705 80283,6917.872,95.437,540.529,538.945,0.0
54068.0,STARLINK-5222,PAYLOAD,2024-04-03 05:07:07,15.08841426,0.0001152,53.2174,270.938,81.8117,278.3006,0.00011646,1.566e-05,0.0,0 STARLINK-5222,1 54068U 22136T   24094.21328518  .00001566  00000-0  11646-3 0  9995,2 54068  53.2174 270.9380 0001152  81.8117 278.3006 15.08841426 80824,6917.876,95.437,540.538,538.944,0.0
54068.0,STARLINK-5222,PAYLOAD,2024-04-03 21:00:59,15.08843146,0.0001211,53.2171,267.9644,82.7671,277.3459,0.00010789,1.43e-05,0.0,0 STARLINK-5222,1 54068U 22136T   24094.87568481  .00001430  00000-0  10789-3 0  9999,2 54068  53.2171 267.9644 0001211  82.7671 277.3459 15.08843146 80441,6917.871,95.437,540.574,538.898,0.0
54068.0,STARLINK-5222,PAYLOAD,2024-04-04 14:30:13,15.08841478,0.0001089,53.2174,264.6924,84.7537,275.3579,8.2265e-05,1.022e-05,0.0,0 STARLINK-5222,1 54068U 22136T   24095.60432469  .00001022  00000-0  82265-4 0  9993,2 54068  53.2174 264.6924 0001089  84.7537 275.3579 15.08841478 80554,6917.876,95.437,540.494,538.988,0.0
54068.0,STARLINK-5222,PAYLOAD,2024-04-04 17:40:59,15.08847521,0.0001208,53.2173,264.0967,112.8769,247.2351,5.7458e-05,6.27e-06,0.0,0 STARLINK-5222,1 54068U 22136T   24095.73680055  .00000627  00000-0  57458-4 0  9999,2 54068  53.2173 264.0967 0001208 112.8769 247.2351 15.08847521 81054,6917.857,95.437,540.558,538.887,0.0
54068.0,STARLINK-5222,PAYLOAD,2024-04-05 11:10:14,15.08843238,0.000128,53.2174,260.8259,92.6185,267.4954,7.7342e-05,9.43e-06,0.0,0 STARLINK-5222,1 54068U 22136T   24096.46544168  .00000943  00000-0  77342-4 0  9999,2 54068  53.2174 260.8259 0001280  92.6185 267.4954 15.08843238 81166,6917.87,95.437,540.621,538.85,0.0
54068.0,STARLINK-5222,PAYLOAD,2024-04-05 17:31:46,15.08846131,0.0001314,53.2177,259.6362,94.8525,265.2618,8.8642e-05,1.123e-05,0.0,0 STARLINK-5222,1 54068U 22136T   24096.73039826  .00001123  00000-0  88642-4 0  9995,2 54068  53.2177 259.6362 0001314  94.8525 265.2618 15.08846131 80729,6917.862,95.437,540.636,538.818,0.0
54068.0,STARLINK-5222,PAYLOAD,2024-04-06 11:01:01,15.08838473,0.000132,53.2173,256.3653,94.5861,265.5282,-1.5468e-06,-3.13e-06,0.0,0 STARLINK-5222,1 54068U 22136T   24097.45904466 -.00000313  00000-0 -15468-5 0  9995,2 54068  53.2173 256.3653 0001320  94.5861 265.5282 15.08838473 81315,6917.885,95.438,540.663,538.837,0.0
54068.0,STARLINK-5222,PAYLOAD,2024-04-06 17:22:33,15.08839084,0.0001278,53.217,255.1771,89.1293,270.9845,7.8905e-06,-1.62e-06,0.0,0 STARLINK-5222,1 54068U 22136T   24097.72400425 -.00000162  00000-0  78905-5 0  9997,2 54068  53.2170 255.1771 0001278  89.1293 270.9845 15.08839084 80875,6917.883,95.438,540.632,538.864,0.0
54068.0,STARLINK-5222,PAYLOAD,2024-04-07 10:51:48,15.08834823,0.0001361,53.2176,251.9068,88.3732,271.7416,-3.2734e-05,-8.09e-06,0.0,0 STARLINK-5222,1 54068U 22136T   24098.45264994 -.00000809  00000-0 -32734-4 0  9995,2 54068  53.2176 251.9068 0001361  88.3732 271.7416 15.08834823 80987,6917.896,95.438,540.703,538.82,0.0
54068.0,STARLINK-5222,PAYLOAD,2024-04-07 17:13:21,15.08837641,0.0001359,53.2176,250.7174,88.198,271.9168,-7.4059e-06,-4.06e-06,0.0,0 STARLINK-5222,1 54068U 22136T   24098.71760806 -.00000406  00000-0 -74059-5 0  9997,2 54068  53.2176 250.7174 0001359  88.1980 271.9168 15.08837641 81508,6917.888,95.438,540.693,538.812,0.0
54068.0,STARLINK-5222,PAYLOAD,2024-04-08 10:42:36,15.08833856,0.0001548,53.2178,247.4471,92.0853,268.0316,5.4088e-05,5.73e-06,0.0,0 STARLINK-5222,1 54068U 22136T   24099.44625126  .00000573  00000-0  54088-4 0  9995,2 54068  53.2178 247.4471 0001548  92.0853 268.0316 15.08833856 81131,6917.899,95.438,540.835,538.693,0.0
54068.0,STARLINK-5222,PAYLOAD,2024-04-08 17:04:08,15.08837153,0.0001533,53.218,246.2583,93.5213,266.5954,7.9176e-05,9.72e-06,0.0,0 STARLINK-5222,1 54068U 22136T   24099.71120939  .00000972  00000-0  79176-4 0  9995,2 54068  53.2180 246.2583 0001533  93.5213 266.5954 15.08837153 81174,6917.889,95.438,540.815,538.694,0.0
54068.0,STARLINK-5222,PAYLOAD,2024-04-09 02:36:27,15.08833225,0.0001423,53.2182,244.474,91.065,269.0505,7.582e-05,9.19e-06,0.0,0 STARLINK-5222,1 54068U 22136T   24100.10865341  .00000919  00000-0  75820-4 0  9997,2 54068  53.2182 244.4740 0001423  91.0650 269.0505 15.08833225 81713,6917.901,95.438,540.751,538.782,0.0
54068.0,STARLINK-5222,PAYLOAD,2024-04-09 08:58:00,15.08835445,0.0001371,53.2198,243.285,94.8848,265.23,5.3793e-05,5.68e-06,0.0,0 STARLINK-5222,1 54068U 22136T   24100.37361386  .00000568  00000-0  53793-4 0  9991,2 54068  53.2198 243.2850 0001371  94.8848 265.2300 15.08835445 81279,6917.894,95.438,540.708,538.811,0.0
54068.0,STARLINK-5222,PAYLOAD,2024-04-10 08:48:47,15.08838916,0.0001342,53.2166,238.8236,89.791,270.3236,7.7617e-05,9.48e-06,0.0,0 STARLINK-5222,1 54068U 22136T   24101.36721258  .00000948  00000-0  77617-4 0  9992,2 54068  53.2166 238.8236 0001342  89.7910 270.3236 15.08838916 81904,6917.884,95.438,540.677,538.82,0.0
54068.0,STARLINK-5222,PAYLOAD,2024-04-10 15:10:19,15.08838827,0.0001355,53.2166,237.634,89.7465,270.3682,7.0334e-05,8.32e-06,0.0,0 STARLINK-5222,1 54068U 22136T   24101.63217305  .00000832  00000-0  70334-4 0  9996,2 54068  53.2166 237.6340 0001355  89.7465 270.3682 15.08838827 81463,6917.884,95.438,540.686,538.812,0.0
54068.0,STARLINK-5222,PAYLOAD,2024-04-11 13:25:43,15.08831084,0.0001268,53.213,233.4669,92.6626,267.4511,0.0002489,3.675e-05,0.0,0 STARLINK-5222,1 54068U 22136T   24102.55953334  .00003675  00000-0  24890-3 0  9990,2 54068  53.2130 233.4669 0001268  92.6626 267.4511 15.08831084 82082,6917.908,95.438,540.65,538.895,0.0
54068.0,STARLINK-5222,PAYLOAD,2024-04-11 15:01:07,15.08828674,0.0001363,53.2154,233.17,91.6155,268.4993,0.00026492,3.93e-05,0.0,0 STARLINK-5222,1 54068U 22136T   24102.62577590  .00003930  00000-0  26492-3 0  9998,2 54068  53.2154 233.1700 0001363  91.6155 268.4993 15.08828674 81617,6917.915,95.438,540.723,538.837,0.0
54068.0,STARLINK-5222,PAYLOAD,2024-04-12 02:08:48,15.08846883,0.0001378,53.2161,231.0911,82.6042,277.5107,3.8105e-05,3.19e-06,0.0,0 STARLINK-5222,1 54068U 22136T   24103.08944841  .00000319  00000-0  38105-4 0  9999,2 54068  53.2161 231.0911 0001378  82.6042 277.5107 15.08846883 82168,6917.859,95.437,540.678,538.771,0.0
54068.0,STARLINK-5222,PAYLOAD,2024-04-12 14:51:53,15.08842984,0.0001339,53.2183,228.7118,90.2888,269.8257,3.204e-05,2.22e-06,0.0,0 STARLINK-5222,1 54068U 22136T   24103.61937083  .00000222  00000-0  32040-4 0  9993,2 54068  53.2183 228.7118 0001339  90.2888 269.8257 15.08842984 81767,6917.871,95.437,540.663,538.81,0.0
54068.0,STARLINK-5222,PAYLOAD,2024-04-13 13:07:18,15.08804413,0.0001378,53.2183,224.549,95.0194,265.0955,0.00052548,8.077e-05,0.0,0 STARLINK-5222,1 54068U 22136T   24104.54674427  .00008077  00000-0  52548-3 0  9996,2 54068  53.2183 224.5490 0001378  95.0194 265.0955 15.08804413 82387,6917.989,95.44,540.807,538.901,0.0
54068.0,STARLINK-5222,PAYLOAD,2024-04-14 12:58:05,15.088213,0.0001401,53.2183,220.0892,101.6389,258.476,0.00040197,6.112e-05,0.0,0 STARLINK-5222,1 54068U 22136T   24105.54033645  .00006112  00000-0  40197-3 0  9993,2 54068  53.2183 220.0892 0001401 101.6389 258.4760 15.08821300 82532,6917.938,95.439,540.772,538.833,0.0
54068.0,STARLINK-5222,PAYLOAD,2024-04-15 12:48:51,15.08846851,0.0001369,53.2177,215.632,88.0033,272.1115,5.9678e-05,6.62e-06,0.0,0 STARLINK-5222,1 54068U 22136T   24106.53392793  .00000662  00000-0  59678-4 0  9994,2 54068  53.2177 215.6320 0001369  88.0033 272.1115 15.08846851 82689,6917.859,95.437,540.672,538.777,0.0
54068.0,STARLINK-5222,PAYLOAD,2024-04-15 17:35:00,15.08846281,0.0001543,53.2178,214.7309,98.6578,261.4589,0.00011096,1.479e-05,0.0,0 STARLINK-5222,1 54068U 22136T   24106.73264482  .00001479  00000-0  11096-3 0  9997,2 54068  53.2178 214.7309 0001543  98.6578 261.4589 15.08846281 82236,6917.861,95.437,540.794,538.659,0.0
54068.0,STARLINK-5222,PAYLOAD,2024-04-16 12:39:38,15.08842538,0.0001767,53.2178,211.1653,102.2847,257.8343,3.1135e-06,-2.39e-06,0.0,0 STARLINK-5222,1 54068U 22136T   24107.52753329 -.00000239  00000-0  31135-5 0  9990,2 54068  53.2178 211.1653 0001767 102.2847 257.8343 15.08842538 82832,6917.873,95.437,540.96,538.515,0.0
54068.0,STARLINK-5222,PAYLOAD,2024-04-16 14:15:00,15.08857821,0.0001439,53.2173,210.8724,90.5629,269.5528,0.00017516,2.502e-05,0.0,0 STARLINK-5222,1 54068U 22136T   24107.59375954  .00002502  00000-0  17516-3 0  9990,2 54068  53.2173 210.8724 0001439  90.5629 269.5528 15.08857821 82369,6917.826,95.436,540.686,538.695,0.0
54068.0,STARLINK-5222,PAYLOAD,2024-04-17 12:30:26,15.0882567,0.0002388,53.2174,206.7074,129.571,230.5493,-0.00025724,-4.379e-05,0.0,0 STARLINK-5222,1 54068U 22136T   24108.52114426 -.00004379  00000-0 -25724-3 0  9995,2 54068  53.2174 206.7074 0002388 129.5710 230.5493 15.08825670 82984,6917.924,95.438,541.441,538.137,0.0
54068.0,STARLINK-5222,PAYLOAD,2024-04-17 14:05:45,15.08887396,0.0002134,53.2173,206.412,50.2168,309.9012,0.00041525,6.335e-05,0.0,0 STARLINK-5222,1 54068U 22136T   24108.58733415  .00006335  00000-0  41525-3 0  9995,2 54068  53.2173 206.4120 0002134  50.2168 309.9012 15.08887396 82518,6917.736,95.435,541.077,538.124,0.0
